[{"OBJECT_NAME":"RESURS-P 4","OBJECT_ID":"2024-061A","EPOCH":"2026-03-10T00:09:50.865408","MEAN_MOTION":15.32930455,"ECCENTRICITY":0.00024315,"INCLINATION":97.2654,"RA_OF_ASC_NODE":18.6595,"ARG_OF_PERICENTER":59.481,"MEAN_ANOMALY":300.6672,"EPHEMERIS_TYPE":0,"CLASSIFICATION_TYPE":"U","NORAD_CAT_ID":59371,"ELEMENT_SET_NO":999,"REV_AT_EPOCH":10857,"BSTAR":0.00016169192,"MEAN_MOTION_DOT":5.066e-5,"MEAN_MOTION_DDOT":0},{"OBJECT_NAME":"STARLINK-34288","OBJECT_ID":"2025-139K","EPOCH":"2026-03-09T13:13:04.660032","MEAN_MOTION":15.30189984,"ECCENTRICITY":0.0001552,"INCLINATION":53.1606,"RA_OF_ASC_NODE":127.6292,"ARG_OF_PERICENTER":69.0226,"MEAN_ANOMALY":291.0941,"EPHEMERIS_TYPE":0,"CLASSIFICATION_TYPE":"U","NORAD_CAT_ID":64673,"ELEMENT_SET_NO":999,"REV_AT_EPOCH":4026,"BSTAR":0.00091259,"MEAN_MOTION_DOT":0.00026758,"MEAN_MOTION_DDOT":0}]
